NORAD_CAT_ID,OBJECT_NAME,OBJECT_TYPE,EPOCH,MEAN_MOTION,ECCENTRICITY,INCLINATION,RA_OF_ASC_NODE,ARG_OF_PERICENTER,MEAN_ANOMALY,BSTAR,MEAN_MOTION_DOT,MEAN_MOTION_DDOT,TLE_LINE0,TLE_LINE1,TLE_LINE2,SEMIMAJOR_AXIS,PERIOD,APOGEE,PERIGEE,DECAYED
55922.0,STARLINK-5863,PAYLOAD,2023-10-08 10:15:37,14.98321343,0.0002976,70.001,11.4544,269.2646,90.8172,3.2943e-05,3e-06,0.0,0 STARLINK-5863,1 55922U 23037J   23281.42751600  .00000300  00000-0  32943-4 0  9997,2 55922  70.0010  11.4544 0002976 269.2646  90.8172 14.98321343 31527,6950.22,96.108,574.153,570.016,0.0
55922.0,STARLINK-5863,PAYLOAD,2023-10-08 13:27:53,14.98328771,0.0002717,70.001,11.118,269.7304,90.3544,-5.0837e-05,-6.99e-06,0.0,0 STARLINK-5863,1 55922U 23037J   23281.56103403 -.00000699  00000-0 -50837-4 0  9999,2 55922  70.0010  11.1180 0002717 269.7304  90.3544 14.98328771 31204,6950.197,96.107,573.95,570.173,0.0
55922.0,STARLINK-5863,PAYLOAD,2023-10-08 15:04:01,14.98325091,0.0002646,70.0016,10.9501,263.2317,96.8541,7.1587e-05,7.61e-06,0.0,0 STARLINK-5863,1 55922U 23037J   23281.62779323  .00000761  00000-0  71587-4 0  9999,2 55922  70.0016  10.9501 0002646 263.2317  96.8541 14.98325091 31219,6950.208,96.107,573.912,570.234,0.0
55922.0,STARLINK-5863,PAYLOAD,2023-10-08 23:04:41,14.98336228,0.0003298,70.0004,10.1067,272.5102,87.5679,7.4246e-06,-4e-08,0.0,0 STARLINK-5863,1 55922U 23037J   23281.96158628 -.00000004  00000-0  74246-5 0  9992,2 55922  70.0004  10.1067 0003298 272.5102  87.5679 14.98336228 31600,6950.174,96.107,574.331,569.746,0.0
55922.0,STARLINK-5863,PAYLOAD,2023-10-09 13:29:53,14.98337685,0.0002732,70.0007,8.592,261.7563,98.3286,3.001e-05,2.65e-06,0.0,0 STARLINK-5863,1 55922U 23037J   23282.56242520  .00000265  00000-0  30010-4 0  9992,2 55922  70.0007   8.5920 0002732 261.7563  98.3286 14.98337685 31359,6950.169,96.107,573.933,570.135,0.0
55922.0,STARLINK-5863,PAYLOAD,2023-10-09 16:42:09,14.98339907,0.0002783,70.0008,8.2548,264.1466,95.9376,6.9547e-05,7.37e-06,0.0,0 STARLINK-5863,1 55922U 23037J   23282.69594204  .00000737  00000-0  69547-4 0  9996,2 55922  70.0008   8.2548 0002783 264.1466  95.9376 14.98339907 31372,6950.162,96.106,573.961,570.093,0.0
55922.0,STARLINK-5863,PAYLOAD,2023-10-10 10:19:38,14.98330647,0.0002645,70.0012,6.4038,265.7726,94.3131,7.7918e-05,8.37e-06,0.0,0 STARLINK-5863,1 55922U 23037J   23283.43030587  .00000837  00000-0  77918-4 0  9990,2 55922  70.0012   6.4038 0002645 265.7726  94.3131 14.98330647 31828,6950.191,96.107,573.894,570.218,0.0
55922.0,STARLINK-5863,PAYLOAD,2023-10-10 13:31:54,14.98334086,0.0002825,70.0006,6.067,260.4579,99.6261,7.9436e-05,8.55e-06,0.0,0 STARLINK-5863,1 55922U 23037J   23283.56382269  .00000855  00000-0  79436-4 0  9998,2 55922  70.0006   6.0670 0002825 260.4579  99.6261 14.98334086 31505,6950.18,96.107,574.009,570.082,0.0
55922.0,STARLINK-5863,PAYLOAD,2023-10-10 15:08:01,14.98340136,0.0003063,70.0005,5.899,265.4897,94.5912,0.00013181,1.48e-05,0.0,0 STARLINK-5863,1 55922U 23037J   23283.63057699  .00001480  00000-0  13181-3 0  9991,2 55922  70.0005   5.8990 0003063 265.4897  94.5912 14.98340136 31857,6950.162,96.106,574.155,569.898,0.0
55922.0,STARLINK-5863,PAYLOAD,2023-10-11 08:45:31,14.98325924,0.0002752,70.0011,4.0487,268.9817,91.1027,-4.849e-05,-6.71e-06,0.0,0 STARLINK-5863,1 55922U 23037J   23284.36495284 -.00000671  00000-0 -48490-4 0  9993,2 55922  70.0011   4.0487 0002752 268.9817  91.1027 14.98325924 31960,6950.205,96.107,573.983,570.158,0.0
55922.0,STARLINK-5863,PAYLOAD,2023-10-11 13:33:56,14.98323559,0.0002806,70.0012,3.5436,269.3879,90.6959,-3.6623e-05,-5.3e-06,0.0,0 STARLINK-5863,1 55922U 23037J   23284.56523308 -.00000530  00000-0 -36623-4 0  9993,2 55922  70.0012   3.5436 0002806 269.3879  90.6959 14.98323559 31658,6950.213,96.107,574.028,570.128,0.0
55922.0,STARLINK-5863,PAYLOAD,2023-10-12 13:35:55,14.98338478,0.0003108,70.0002,1.0179,270.6454,89.4348,7.7295e-05,8.3e-06,0.0,0 STARLINK-5863,1 55922U 23037J   23285.56662031  .00000830  00000-0  77295-4 0  9992,2 55922  70.0002   1.0179 0003108 270.6454  89.4348 14.98338478 31805,6950.167,96.106,574.192,569.872,0.0
55922.0,STARLINK-5863,PAYLOAD,2023-10-12 15:12:03,14.98338698,0.0003084,70.0,0.8493,269.9273,90.1532,9.1184e-05,9.95e-06,0.0,0 STARLINK-5863,1 55922U 23037J   23285.63337952  .00000995  00000-0  91184-4 0  9996,2 55922  70.0000   0.8493 0003084 269.9273  90.1532 14.98338698 32159,6950.166,96.106,574.174,569.888,0.0
55922.0,STARLINK-5863,PAYLOAD,2023-10-13 12:01:49,14.98324438,0.0002486,70.0013,358.6632,262.4838,97.6039,0.00016157,1.835e-05,0.0,0 STARLINK-5863,1 55922U 23037J   23286.50126782  .00001835  00000-0  16157-3 0  9990,2 55922  70.0013 358.6632 0002486 262.4838  97.6039 14.98324438 32287,6950.21,96.107,573.803,570.347,0.0
55922.0,STARLINK-5863,PAYLOAD,2023-10-13 13:37:57,14.98323611,0.0002518,70.0014,358.4951,263.8718,96.2154,0.00017388,1.982e-05,0.0,0 STARLINK-5863,1 55922U 23037J   23286.56802825  .00001982  00000-0  17388-3 0  9995,2 55922  70.0014 358.4951 0002518 263.8718  96.2154 14.98323611 31956,6950.213,96.107,573.828,570.328,0.0
55922.0,STARLINK-5863,PAYLOAD,2023-10-13 21:38:37,14.98359428,0.0002745,70.0013,357.6527,272.746,87.3385,-0.00041238,-5.014e-05,0.0,0 STARLINK-5863,1 55922U 23037J   23286.90181845 -.00005014  00000-0 -41238-3 0  9998,2 55922  70.0013 357.6527 0002745 272.7460  87.3385 14.98359428 32009,6950.102,96.105,573.875,570.059,0.0
55922.0,STARLINK-5863,PAYLOAD,2023-10-14 04:03:09,14.98335244,0.0002903,70.0008,356.9781,272.7882,87.2945,5.8471e-05,6.05e-06,0.0,0 STARLINK-5863,1 55922U 23037J   23287.16886285  .00000605  00000-0  58471-4 0  9994,2 55922  70.0008 356.9781 0002903 272.7882  87.2945 14.98335244 32383,6950.177,96.107,574.059,570.024,0.0
55922.0,STARLINK-5863,PAYLOAD,2023-10-14 13:39:57,14.98339182,0.0002798,70.0006,355.9681,275.6914,84.3926,0.00011383,1.266e-05,0.0,0 STARLINK-5863,1 55922U 23037J   23287.56941710  .00001266  00000-0  11383-3 0  9997,2 55922  70.0006 355.9681 0002798 275.6914  84.3926 14.98339182 32101,6950.164,96.106,573.974,570.085,0.0
55922.0,STARLINK-5863,PAYLOAD,2023-10-14 21:40:37,14.98381034,0.000254,70.0022,355.1268,279.7559,80.3313,-0.00091811,-0.00011045,0.0,0 STARLINK-5863,1 55922U 23037J   23287.90321269 -.00011045  00000-0 -91811-3 0  9998,2 55922  70.0022 355.1268 0002540 279.7559  80.3313 14.98381034 32151,6950.035,96.104,573.665,570.135,0.0
55922.0,STARLINK-5863,PAYLOAD,2023-10-15 12:05:52,14.98316679,0.0002923,70.0001,353.6108,269.5456,90.5368,-0.00013853,-1.745e-05,0.0,0 STARLINK-5863,1 55922U 23037J   23288.50407898 -.00001745  00000-0 -13853-3 0  9994,2 55922  70.0001 353.6108 0002923 269.5456  90.5368 14.98316679 32585,6950.234,96.108,574.131,570.068,0.0
55922.0,STARLINK-5863,PAYLOAD,2023-10-15 13:42:00,14.9831778,0.0002984,70.0,353.4425,270.2408,89.8409,-0.00012425,-1.575e-05,0.0,0 STARLINK-5863,1 55922U 23037J   23288.57083832 -.00001575  00000-0 -12425-3 0  9994,2 55922  70.0000 353.4425 0002984 270.2408  89.8409 14.98317780 32252,6950.231,96.108,574.17,570.022,0.0
55922.0,STARLINK-5863,PAYLOAD,2023-10-15 21:42:40,14.98327469,0.0002764,70.0002,352.6007,272.302,87.7823,-0.00018703,-2.324e-05,0.0,0 STARLINK-5863,1 55922U 23037J   23288.90463584 -.00002324  00000-0 -18703-3 0  9995,2 55922  70.0002 352.6007 0002764 272.3020  87.7823 14.98327469 32308,6950.201,96.107,573.987,570.145,0.0
55922.0,STARLINK-5863,PAYLOAD,2023-10-16 08:55:36,14.98332809,0.0002818,70.0004,351.4238,271.8174,88.2662,-3.0729e-05,-4.6e-06,0.0,0 STARLINK-5863,1 55922U 23037J   23289.37194853 -.00000460  00000-0 -30729-4 0  9999,2 55922  70.0004 351.4238 0002818 271.8174  88.2662 14.98332809 32713,6950.184,96.107,574.008,570.091,0.0
55922.0,STARLINK-5863,PAYLOAD,2023-10-16 13:44:00,14.9833732,0.0002924,69.9995,350.9175,269.5245,90.5579,9.4578e-06,2e-07,0.0,0 STARLINK-5863,1 55922U 23037J   23289.57222386  .00000020  00000-0  94578-5 0  9997,2 55922  69.9995 350.9175 0002924 269.5245  90.5579 14.98337320 32406,6950.17,96.107,574.067,570.003,0.0
55922.0,STARLINK-5863,PAYLOAD,2023-10-17 12:09:52,14.98329866,0.0002567,70.0003,348.5609,261.6112,98.4756,0.00030985,3.606e-05,0.0,0 STARLINK-5863,1 55922U 23037J   23290.50686246  .00003606  00000-0  30985-3 0  9994,2 55922  70.0003 348.5609 0002567 261.6112  98.4756 14.98329866 32885,6950.193,96.107,573.842,570.274,0.0
55922.0,STARLINK-5863,PAYLOAD,2023-10-18 02:35:05,14.98341222,0.000247,69.9998,347.0471,277.4257,82.6622,7.6624e-05,8.22e-06,0.0,0 STARLINK-5863,1 55922U 23037J   23291.10770025  .00000822  00000-0  76624-4 0  9998,2 55922  69.9998 347.0471 0002470 277.4257  82.6622 14.98341222 32634,6950.158,96.106,573.74,570.306,0.0
55922.0,STARLINK-5863,PAYLOAD,2023-10-18 12:11:56,14.98308292,0.0002911,69.9999,346.0366,267.6119,92.4707,-0.00027329,-3.35e-05,0.0,0 STARLINK-5863,1 55922U 23037J   23291.50829089 -.00003350  00000-0 -27329-3 0  9995,2 55922  69.9999 346.0366 0002911 267.6119  92.4707 14.98308292 33033,6950.26,96.108,574.148,570.102,0.0
55922.0,STARLINK-5863,PAYLOAD,2023-10-19 04:13:16,14.98319278,0.0002778,69.999,344.3523,272.7272,87.3569,-0.00012953,-1.638e-05,0.0,0 STARLINK-5863,1 55922U 23037J   23292.17588585 -.00001638  00000-0 -12953-3 0  9996,2 55922  69.9990 344.3523 0002778 272.7272  87.3569 14.98319278 33134,6950.226,96.108,574.022,570.16,0.0
55922.0,STARLINK-5863,PAYLOAD,2023-10-19 12:13:56,14.98323755,0.000228,70.0011,343.5128,247.8717,112.22,-5.452e-05,-7.43e-06,0.0,0 STARLINK-5863,1 55922U 23037J   23292.50968189 -.00000743  00000-0 -54520-4 0  9998,2 55922  70.0011 343.5128 0002280 247.8717 112.2200 14.98323755 32840,6950.212,96.107,573.662,570.493,0.0
55922.0,STARLINK-5863,PAYLOAD,2023-10-19 20:14:35,14.98339342,0.0002918,69.9997,342.672,267.5727,92.5098,-8.1976e-05,-1.071e-05,0.0,0 STARLINK-5863,1 55922U 23037J   23292.84347209 -.00001071  00000-0 -81976-4 0  9999,2 55922  69.9997 342.6720 0002918 267.5727  92.5098 14.98339342 33234,6950.164,96.106,574.057,570.001,0.0
